IRIDIUM 166             
1 43570U 18061B   25276.40734186  .00000699  00000+0  24265-3 0  9995
2 43570  86.4027 164.0759 0002106  76.1964 283.9467 14.34215419376595
IRIDIUM 158             
1 43571U 18061C   25276.23609357 -.00000042  00000+0 -22060-4 0  9994
2 43571  86.4031 164.1578 0002183  84.5361 275.6083 14.34217281376535
IRIDIUM 165             
1 43572U 18061D   25276.61030676  .00000140  00000+0  42857-4 0  9992
2 43572  86.4033 164.0432 0002086  80.6403 279.5028 14.34216074376612
IRIDIUM 155             
1 43573U 18061E   25276.22340806  .00000134  00000+0  40708-4 0  9995
2 43573  86.4026 164.0864 0002367  81.6000 278.5464 14.34217798376527
IRIDIUM 154             
1 43574U 18061F   25276.62298208  .00000767  00000+0  26666-3 0  9996
2 43574  86.4027 164.0403 0002146  81.9749 278.1690 14.34222046376637
IRIDIUM 163             
1 43575U 18061G   25276.39465849  .00000106  00000+0  30688-4 0  9995
2 43575  86.4025 164.0592 0002302  88.6606 271.4854 14.34217600376576
IRIDIUM 156             
1 43576U 18061H   25276.22974600 -.00000161  00000+0 -64452-4 0  9997
2 43576  86.4032 164.1348 0002267  76.5356 283.6092 14.34214553376543
IRIDIUM 164             
1 43577U 18061J   25276.42002782 -.00000068  00000+0 -31412-4 0  9999
2 43577  86.4032 164.0915 0001934  78.3663 281.7750 14.34217596376612
